[{"place_lat": "23", "place_long": "23", "place_name": "asdfasdf", "place_desc": "asdfasdfasdf", "submit": "Submit"}, {"place_lat": "18.5602", "place_long": "73.8031", "place_name": "Aundh", "place_desc": "abcd", "submit": "Submit"}, {"place_lat": "123", "place_long": "123", "place_name": "Solapur", "place_desc": "Solapur", "submit": "Submit"}, {"place_lat": "16.8524", "place_long": "74.5815", "place_name": "Sangli", "place_desc": "Sangli", "submit": "Submit"}, {"place_lat": "16.8524", "place_long": "74.5815", "place_name": "Sangli", "place_desc": "Sangli", "submit": "Submit"}, {"place_lat": "17.6805", "place_long": "74.0183", "place_name": "Satara", "place_desc": "Satara", "submit": "Submit"}, {"place_lat": "18.5089", "place_long": "73.9259", "place_name": "Hadapsar", "place_desc": "Hadapsar", "submit": "Submit"}, {"place_lat": "18.5303", "place_long": "73.8548", "place_name": "COEP", "place_desc": "College of Engineering Pune", "submit": "Submit"}, {"place_lat": "18.5074", "place_long": "73.8077", "place_name": "Kothrud", "place_desc": "Kothrud Pune", "submit": "Submit"}, {"place_lat": "18.5314", "place_long": "73.8446", "place_name": "Shivajinagar", "place_desc": "Shivajinagar", "submit": "Submit"}]
